NORAD_CAT_ID,OBJECT_NAME,OBJECT_TYPE,EPOCH,MEAN_MOTION,ECCENTRICITY,INCLINATION,RA_OF_ASC_NODE,ARG_OF_PERICENTER,MEAN_ANOMALY,BSTAR,MEAN_MOTION_DOT,MEAN_MOTION_DDOT,TLE_LINE0,TLE_LINE1,TLE_LINE2,SEMIMAJOR_AXIS,PERIOD,APOGEE,PERIGEE,DECAYED
53272.0,STARLINK-4122,PAYLOAD,2023-03-09 16:56:38,15.08849051,0.0001001,53.217,64.1781,89.0155,271.0952,0.00050107,7.698e-05,0.0,0 STARLINK-4122,1 53272U 22086AG  23068.70600043  .00007698  00000-0  50107-3 0  9992,2 53272  53.2170  64.1781 0001001  89.0155 271.0952 15.08849051 35742,6917.853,95.437,540.41,539.025,0.0
53272.0,STARLINK-4122,PAYLOAD,2023-03-10 05:39:43,15.08851734,8.01e-05,53.2165,61.7983,95.2102,264.8982,0.00041188,6.275e-05,0.0,0 STARLINK-4122,1 53272U 22086AG  23069.23591786  .00006275  00000-0  41188-3 0  9993,2 53272  53.2165  61.7983 0000801  95.2102 264.8982 15.08851734 35644,6917.845,95.437,540.264,539.155,0.0
53272.0,STARLINK-4122,PAYLOAD,2023-03-10 16:47:25,15.08845293,0.0001087,53.2171,59.7165,83.8404,276.2712,0.00020136,2.919e-05,0.0,0 STARLINK-4122,1 53272U 22086AG  23069.69959908  .00002919  00000-0  20136-3 0  9998,2 53272  53.2171  59.7165 0001087  83.8404 276.2712 15.08845293 35714,6917.864,95.437,540.481,538.977,0.0
53272.0,STARLINK-4122,PAYLOAD,2023-03-11 05:30:30,15.08839927,0.0001573,53.2172,57.3386,82.4835,277.6336,0.00020674,3.004e-05,0.0,0 STARLINK-4122,1 53272U 22086AG  23070.22952415  .00003004  00000-0  20674-3 0  9998,2 53272  53.2172  57.3386 0001573  82.4835 277.6336 15.08839927 35799,6917.881,95.438,540.834,538.657,0.0
53272.0,STARLINK-4122,PAYLOAD,2023-03-11 08:41:17,15.08841718,0.0001511,53.2182,56.7416,94.7673,265.3492,0.00034001,5.128e-05,0.0,0 STARLINK-4122,1 53272U 22086AG  23070.36200439  .00005128  00000-0  34001-3 0  9993,2 53272  53.2182  56.7416 0001511  94.7673 265.3492 15.08841718 35995,6917.875,95.437,540.785,538.695,0.0
53272.0,STARLINK-4122,PAYLOAD,2023-03-12 08:32:04,15.08845609,0.0001571,53.2176,52.2818,89.9119,270.2053,0.00055647,8.581e-05,0.0,0 STARLINK-4122,1 53272U 22086AG  23071.35560824  .00008581  00000-0  55647-3 0  9995,2 53272  53.2176  52.2818 0001571  89.9119 270.2053 15.08845609 35960,6917.863,95.437,540.815,538.641,0.0
53272.0,STARLINK-4122,PAYLOAD,2023-03-13 06:47:28,15.08851109,0.0001567,53.2193,48.1177,91.3648,268.7524,0.000344,5.193e-05,0.0,0 STARLINK-4122,1 53272U 22086AG  23072.28296432  .00005193  00000-0  34400-3 0  9999,2 53272  53.2193  48.1177 0001567  91.3648 268.7524 15.08851109 36104,6917.846,95.437,540.795,538.627,0.0
53272.0,STARLINK-4122,PAYLOAD,2023-03-13 21:05:56,15.08839589,0.00019,53.2196,45.4422,77.9905,282.13,9.0793e-05,1.157e-05,0.0,0 STARLINK-4122,1 53272U 22086AG  23072.87912895  .00001157  00000-0  90793-4 0  9996,2 53272  53.2196  45.4422 0001900  77.9905 282.1300 15.08839589 36196,6917.882,95.438,541.061,538.432,0.0
53272.0,STARLINK-4122,PAYLOAD,2023-03-14 05:02:51,15.08882142,0.0001417,53.2193,43.9542,109.4178,250.6968,0.0011741,0.00018469,0.0,0 STARLINK-4122,1 53272U 22086AG  23073.21031521  .00018469  00000-0  11741-2 0  9991,2 53272  53.2193  43.9542 0001417 109.4178 250.6968 15.08882142 36244,6917.752,95.435,540.597,538.636,0.0
53272.0,STARLINK-4122,PAYLOAD,2023-03-14 08:13:36,15.08888562,0.0001448,53.22,43.36,109.324,250.7908,0.0010569,0.00016595,0.0,0 STARLINK-4122,1 53272U 22086AG  23073.34278740  .00016595  00000-0  10569-2 0  9996,2 53272  53.2200  43.3600 0001448 109.3240 250.7908 15.08888562 36444,6917.732,95.434,540.599,538.595,0.0
53272.0,STARLINK-4122,PAYLOAD,2023-03-14 14:35:09,15.08877391,0.0002775,53.2196,42.1714,77.5459,282.5843,0.00067901,0.00010546,0.0,0 STARLINK-4122,1 53272U 22086AG  23073.60774996  .00010546  00000-0  67901-3 0  9992,2 53272  53.2196  42.1714 0002775  77.5459 282.5843 15.08877391 36307,6917.766,95.435,541.551,537.711,0.0
53272.0,STARLINK-4122,PAYLOAD,2023-03-15 04:53:38,15.08838231,0.0001602,53.2195,39.5036,113.7541,246.362,-0.000292,-4.932e-05,0.0,0 STARLINK-4122,1 53272U 22086AG  23074.20391245 -.00004932  00000-0 -29200-3 0  9995,2 53272  53.2195  39.5036 0001602 113.7541 246.3620 15.08838231 36396,6917.886,95.438,540.859,538.643,0.0
53272.0,STARLINK-4122,PAYLOAD,2023-03-15 08:04:24,15.08845526,0.0001283,53.2186,38.9033,99.0344,261.0793,-5.5772e-05,-1.176e-05,0.0,0 STARLINK-4122,1 53272U 22086AG  23074.33639012 -.00001176  00000-0 -55772-4 0  9997,2 53272  53.2186  38.9033 0001283  99.0344 261.0793 15.08845526 36590,6917.863,95.437,540.616,538.841,0.0
53272.0,STARLINK-4122,PAYLOAD,2023-03-15 20:47:29,15.0883501,0.000149,53.2191,36.5224,95.0968,265.0194,-0.00030208,-5.092e-05,0.0,0 STARLINK-4122,1 53272U 22086AG  23074.86631690 -.00005092  00000-0 -30208-3 0  9996,2 53272  53.2191  36.5224 0001490  95.0968 265.0194 15.08835010 36675,6917.896,95.438,540.791,538.73,0.0
53272.0,STARLINK-4122,PAYLOAD,2023-03-16 06:19:48,15.08835956,0.0001565,53.2188,34.74,94.1521,265.965,6.5933e-05,7.61e-06,0.0,0 STARLINK-4122,1 53272U 22086AG  23075.26375969  .00000761  00000-0  65933-4 0  9995,2 53272  53.2188  34.7400 0001565  94.1521 265.9650 15.08835956 36557,6917.893,95.438,540.84,538.675,0.0
53272.0,STARLINK-4122,PAYLOAD,2023-03-16 20:38:17,15.08830126,0.0001645,53.2188,32.0654,85.0805,275.0375,0.00019906,2.881e-05,0.0,0 STARLINK-4122,1 53272U 22086AG  23075.85992793  .00002881  00000-0  19906-3 0  9993,2 53272  53.2188  32.0654 0001645  85.0805 275.0375 15.08830126 36822,6917.911,95.438,540.914,538.638,0.0
53272.0,STARLINK-4122,PAYLOAD,2023-03-16 22:13:40,15.08828979,0.0001318,53.2199,31.7684,91.3438,268.7705,0.00023006,3.374e-05,0.0,0 STARLINK-4122,1 53272U 22086AG  23075.92616896  .00003374  00000-0  23006-3 0  9992,2 53272  53.2199  31.7684 0001318  91.3438 268.7705 15.08828979 36652,6917.914,95.438,540.691,538.867,0.0
53272.0,STARLINK-4122,PAYLOAD,2023-03-17 14:07:32,15.08833023,0.0001287,53.2185,28.7937,83.4578,276.656,0.00033627,5.067e-05,0.0,0 STARLINK-4122,1 53272U 22086AG  23076.58857287  .00005067  00000-0  33627-3 0  9997,2 53272  53.2185  28.7937 0001287  83.4578 276.6560 15.08833023 36930,6917.902,95.438,540.657,538.876,0.0
53272.0,STARLINK-4122,PAYLOAD,2023-03-18 02:50:37,15.08846111,0.0001181,53.2188,26.4147,79.712,280.4005,0.00041755,6.365e-05,0.0,0 STARLINK-4122,1 53272U 22086AG  23077.11849004  .00006365  00000-0  41755-3 0  9998,2 53272  53.2188  26.4147 0001181  79.7120 280.4005 15.08846111 36833,6917.862,95.437,540.544,538.91,0.0
53272.0,STARLINK-4122,PAYLOAD,2023-03-18 13:58:19,15.08837031,0.000175,53.2179,24.3335,78.7943,281.3246,0.00022728,3.331e-05,0.0,0 STARLINK-4122,1 53272U 22086AG  23077.58217421  .00003331  00000-0  22728-3 0  9990,2 53272  53.2179  24.3335 0001750  78.7943 281.3246 15.08837031 36909,6917.889,95.438,540.965,538.544,0.0
53272.0,STARLINK-4122,PAYLOAD,2023-03-19 05:52:10,15.08849708,0.0001412,53.2185,21.3587,81.1325,278.9827,0.00039725,6.042e-05,0.0,0 STARLINK-4122,1 53272U 22086AG  23078.24457071  .00006042  00000-0  39725-3 0  9998,2 53272  53.2185  21.3587 0001412  81.1325 278.9827 15.08849708 37181,6917.851,95.437,540.693,538.739,0.0
53272.0,STARLINK-4122,PAYLOAD,2023-03-20 05:42:58,15.08853113,0.0001182,53.2194,16.8984,84.9816,275.1312,0.00066162,0.00010261,0.0,0 STARLINK-4122,1 53272U 22086AG  23079.23817221  .00010261  00000-0  66162-3 0  9998,2 53272  53.2194  16.8984 0001182  84.9816 275.1312 15.08853113 37151,6917.84,95.437,540.523,538.888,0.0
53272.0,STARLINK-4122,PAYLOAD,2023-03-21 05:33:44,15.08865352,0.0001227,53.2192,12.4391,100.0624,260.0506,0.0015906,0.00025135,0.0,0 STARLINK-4122,1 53272U 22086AG  23080.23177027  .00025135  00000-0  15906-2 0  9998,2 53272  53.2192  12.4391 0001227 100.0624 260.0506 15.08865352 37303,6917.803,95.436,540.517,538.819,0.0
53272.0,STARLINK-4122,PAYLOAD,2023-03-22 03:49:09,15.08840443,0.0001242,53.219,8.2774,100.7699,259.3433,0.0012397,0.00019497,0.0,0 STARLINK-4122,1 53272U 22086AG  23081.15913967  .00019497  00000-0  12397-2 0  9996,2 53272  53.2190   8.2774 0001242 100.7699 259.3433 15.08840443 37444,6917.879,95.438,540.603,538.885,0.0
53272.0,STARLINK-4122,PAYLOAD,2023-03-23 03:39:56,15.08857893,0.0001148,53.2179,3.8175,90.0345,270.0779,0.0015349,0.00024236,0.0,0 STARLINK-4122,1 53272U 22086AG  23082.15273790  .00024236  00000-0  15349-2 0  9997,2 53272  53.2179   3.8175 0001148  90.0345 270.0779 15.08857893 37597,6917.826,95.436,540.485,538.897,0.0
53272.0,STARLINK-4122,PAYLOAD,2023-03-23 22:44:34,15.08843289,8.99e-05,53.2182,0.2516,72.1154,287.9936,0.00044464,6.796e-05,0.0,0 STARLINK-4122,1 53272U 22086AG  23082.94762059  .00006796  00000-0  44464-3 0  9997,2 53272  53.2182   0.2516 0000899  72.1154 287.9936 15.08843289 37891,6917.87,95.437,540.357,539.113,0.0
53272.0,STARLINK-4122,PAYLOAD,2023-03-24 03:30:43,15.0893074,9.87e-05,53.2169,359.3572,106.3244,253.7857,0.0075302,0.00121939,0.0,0 STARLINK-4122,1 53272U 22086AG  23083.14633690  .00121939  00000-0  75302-2 0  9999,2 53272  53.2169 359.3572 0000987 106.3244 253.7857 15.08930740 37740,6917.603,95.432,540.151,538.785,0.0
53272.0,STARLINK-4122,PAYLOAD,2023-03-24 22:35:19,15.08895717,9.01e-05,53.2163,355.7885,112.0568,248.052,0.001876,0.0002974,0.0,0 STARLINK-4122,1 53272U 22086AG  23083.94119827  .00029740  00000-0  18760-2 0  9990,2 53272  53.2163 355.7885 0000901 112.0568 248.0520 15.08895717 38042,6917.71,95.434,540.198,538.952,0.0
53272.0,STARLINK-4122,PAYLOAD,2023-03-25 01:46:05,15.08903585,0.0001526,53.2167,355.195,76.5896,283.5266,0.0019818,0.00031448,0.0,0 STARLINK-4122,1 53272U 22086AG  23084.07367578  .00031448  00000-0  19818-2 0  9996,2 53272  53.2167 355.1950 0001526  76.5896 283.5266 15.08903585 37880,6917.686,95.434,540.607,538.495,0.0
53272.0,STARLINK-4122,PAYLOAD,2023-03-25 22:26:07,15.08797103,0.0001403,53.2166,351.328,83.1786,276.9366,0.00065446,0.00010131,0.0,0 STARLINK-4122,1 53272U 22086AG  23084.93481402  .00010131  00000-0  65446-3 0  9999,2 53272  53.2166 351.3280 0001403  83.1786 276.9366 15.08797103 38198,6918.012,95.44,540.847,538.906,0.0
